{
  "type": "FeatureCollection",
  "features": [
    {
      "type": "Feature",
      "properties": {
        "norad_id": 27954,
        "name": "GALAXY 13 (HORIZONS-1)",
        "group": "intelsat",
        "lat": -0.5946855328203604,
        "lon": 45.287767803015576,
        "alt_km": 35794.37542988413,
        "timestamp": "2025-12-10T07:43:54.441414+00:00",
        "meta_object_name": "GALAXY 13 (HORIZONS-1)",
        "meta_object_id": "2003-044A",
        "meta_epoch": "2025-12-09T14:04:00.761088",
        "meta_mean_motion": 1.00270127,
        "meta_eccentricity": 0.0002023,
        "meta_inclination": 0.9273,
        "meta_ra_of_asc_node": 86.5108,
        "meta_arg_of_pericenter": 162.3964,
        "meta_mean_anomaly": 250.6744,
        "meta_ephemeris_type": 0,
        "meta_classification_type": "U",
        "meta_norad_cat_id": 27954,
        "meta_element_set_no": 999,
        "meta_rev_at_epoch": 4467,
        "meta_bstar": 0,
        "meta_mean_motion_dot": 1.35e-06,
        "meta_mean_motion_ddot": 0,
        "tle_line1": "1 27954U 03044A   25343.58611992  .00000135  00000+0  00000+0 0  9993",
        "tle_line2": "2 27954   0.9273  86.5108 0002023 162.3964 250.6744  1.00270127 44675"
      },
      "geometry": {
        "type": "Point",
        "coordinates": [
          45.287767803015576,
          -0.5946855328203604
        ]
      }
    },
    {
      "type": "Feature",
      "properties": {
        "norad_id": 28358,
        "name": "INTELSAT 10-02",
        "group": "intelsat",
        "lat": 0.014339200895085287,
        "lon": -165.71732544695593,
        "alt_km": 35786.51555457186,
        "timestamp": "2025-12-10T07:43:54.441426+00:00",
        "meta_object_name": "INTELSAT 10-02",
        "meta_object_id": "2004-022A",
        "meta_epoch": "2025-12-09T13:34:07.706208",
        "meta_mean_motion": 1.00269981,
        "meta_eccentricity": 0.0001115,
        "meta_inclination": 0.0308,
        "meta_ra_of_asc_node": 72.1506,
        "meta_arg_of_pericenter": 211.8162,
        "meta_mean_anomaly": 357.1457,
        "meta_ephemeris_type": 0,
        "meta_classification_type": "U",
        "meta_norad_cat_id": 28358,
        "meta_element_set_no": 999,
        "meta_rev_at_epoch": 7865,
        "meta_bstar": 0,
        "meta_mean_motion_dot": -9e-08,
        "meta_mean_motion_ddot": 0,
        "tle_line1": "1 28358U 04022A   25343.56536697 -.00000009  00000+0  00000+0 0  9996",
        "tle_line2": "2 28358   0.0308  72.1506 0001115 211.8162 357.1457  1.00269981 78653"
      },
      "geometry": {
        "type": "Point",
        "coordinates": [
          -165.71732544695593,
          0.014339200895085287
        ]
      }
    },
    {
      "type": "Feature",
      "properties": {
        "norad_id": 28626,
        "name": "XM-3 (RHYTHM)",
        "group": "intelsat",
        "lat": -0.15180337652137746,
        "lon": -38.93120401592139,
        "alt_km": 36154.51375843266,
        "timestamp": "2025-12-10T07:43:54.441439+00:00",
        "meta_object_name": "XM-3 (RHYTHM)",
        "meta_object_id": "2005-008A",
        "meta_epoch": "2025-12-09T14:54:38.529792",
        "meta_mean_motion": 0.98953659,
        "meta_eccentricity": 0.0001381,
        "meta_inclination": 0.1668,
        "meta_ra_of_asc_node": 81.2156,
        "meta_arg_of_pericenter": 264.7021,
        "meta_mean_anomaly": 85.4801,
        "meta_ephemeris_type": 0,
        "meta_classification_type": "U",
        "meta_norad_cat_id": 28626,
        "meta_element_set_no": 999,
        "meta_rev_at_epoch": 4071,
        "meta_bstar": 0,
        "meta_mean_motion_dot": -2.36e-06,
        "meta_mean_motion_ddot": 0,
        "tle_line1": "1 28626U 05008A   25343.62127928 -.00000236  00000+0  00000+0 0  9991",
        "tle_line2": "2 28626   0.1668  81.2156 0001381 264.7021  85.4801  0.98953659 40717"
      },
      "geometry": {
        "type": "Point",
        "coordinates": [
          -38.93120401592139,
          -0.15180337652137746
        ]
      }
    },
    {
      "type": "Feature",
      "properties": {
        "norad_id": 28659,
        "name": "DIRECTV 8",
        "group": "intelsat",
        "lat": 0.03402158225673958,
        "lon": 76.23462580560681,
        "alt_km": 35799.35543494671,
        "timestamp": "2025-12-10T07:43:54.441451+00:00",
        "meta_object_name": "DIRECTV 8",
        "meta_object_id": "2005-019A",
        "meta_epoch": "2025-12-09T14:43:08.593824",
        "meta_mean_motion": 1.00271975,
        "meta_eccentricity": 0.0003178,
        "meta_inclination": 0.0169,
        "meta_ra_of_asc_node": 7.3328,
        "meta_arg_of_pericenter": 255.58,
        "meta_mean_anomaly": 277.4302,
        "meta_ephemeris_type": 0,
        "meta_classification_type": "U",
        "meta_norad_cat_id": 28659,
        "meta_element_set_no": 999,
        "meta_rev_at_epoch": 7517,
        "meta_bstar": 0,
        "meta_mean_motion_dot": 3e-08,
        "meta_mean_motion_ddot": 0,
        "tle_line1": "1 28659U 05019A   25343.61329391  .00000003  00000+0  00000+0 0  9997",
        "tle_line2": "2 28659   0.0169   7.3328 0003178 255.5800 277.4302  1.00271975 75172"
      },
      "geometry": {
        "type": "Point",
        "coordinates": [
          76.23462580560681,
          0.03402158225673958
        ]
      }
    },
    {
      "type": "Feature",
      "properties": {
        "norad_id": 28702,
        "name": "GALAXY 28 (G-28)",
        "group": "intelsat",
        "lat": 1.217191289622998,
        "lon": 106.54918317834138,
        "alt_km": 35796.43473572902,
        "timestamp": "2025-12-10T07:43:54.441462+00:00",
        "meta_object_name": "GALAXY 28 (G-28)",
        "meta_object_id": "2005-022A",
        "meta_epoch": "2025-12-09T12:29:48.392736",
        "meta_mean_motion": 1.00271081,
        "meta_eccentricity": 0.00026859,
        "meta_inclination": 2.8104,
        "meta_ra_of_asc_node": 81.3192,
        "meta_arg_of_pericenter": 179.8142,
        "meta_mean_anomaly": 276.1436,
        "meta_ephemeris_type": 0,
        "meta_classification_type": "U",
        "meta_norad_cat_id": 28702,
        "meta_element_set_no": 999,
        "meta_rev_at_epoch": 5007,
        "meta_bstar": 0,
        "meta_mean_motion_dot": -1.85e-06,
        "meta_mean_motion_ddot": 0,
        "tle_line1": "1 28702U 05022A   25343.52069899 -.00000185  00000+0  00000+0 0  9996",
        "tle_line2": "2 28702   2.8104  81.3192 0002685 179.8142 276.1436  1.00271081 50074"
      },
      "geometry": {
        "type": "Point",
        "coordinates": [
          106.54918317834138,
          1.217191289622998
        ]
      }
    },
    {
      "type": "Feature",
      "properties": {
        "norad_id": 29236,
        "name": "GALAXY 16 (G-16)",
        "group": "intelsat",
        "lat": 0.016142539075048326,
        "lon": 96.25063335789488,
        "alt_km": 35796.92811246193,
        "timestamp": "2025-12-10T07:43:54.441474+00:00",
        "meta_object_name": "GALAXY 16 (G-16)",
        "meta_object_id": "2006-023A",
        "meta_epoch": "2025-12-09T13:15:09.203040",
        "meta_mean_motion": 1.002722,
        "meta_eccentricity": 0.0002825,
        "meta_inclination": 0.037,
        "meta_ra_of_asc_node": 155.0146,
        "meta_arg_of_pericenter": 97.4048,
        "meta_mean_anomaly": 285.8988,
        "meta_ephemeris_type": 0,
        "meta_classification_type": "U",
        "meta_norad_cat_id": 29236,
        "meta_element_set_no": 999,
        "meta_rev_at_epoch": 7107,
        "meta_bstar": 0,
        "meta_mean_motion_dot": -1.24e-06,
        "meta_mean_motion_ddot": 0,
        "tle_line1": "1 29236U 06023A   25343.55218985 -.00000124  00000+0  00000+0 0  9999",
        "tle_line2": "2 29236   0.0370 155.0146 0002825  97.4048 285.8988  1.00272200 71072"
      },
      "geometry": {
        "type": "Point",
        "coordinates": [
          96.25063335789488,
          0.016142539075048326
        ]
      }
    },
    {
      "type": "Feature",
      "properties": {
        "norad_id": 29494,
        "name": "DIRECTV 9S",
        "group": "intelsat",
        "lat": 0.3816444254702044,
        "lon": 94.04336607316769,
        "alt_km": 35799.39246346836,
        "timestamp": "2025-12-10T07:43:54.441486+00:00",
        "meta_object_name": "DIRECTV 9S",
        "meta_object_id": "2006-043A",
        "meta_epoch": "2025-12-09T13:13:51.873312",
        "meta_mean_motion": 1.00270727,
        "meta_eccentricity": 0.0003157,
        "meta_inclination": 1.9321,
        "meta_ra_of_asc_node": 83.2391,
        "meta_arg_of_pericenter": 178.3097,
        "meta_mean_anomaly": 274.2425,
        "meta_ephemeris_type": 0,
        "meta_classification_type": "U",
        "meta_norad_cat_id": 29494,
        "meta_element_set_no": 999,
        "meta_rev_at_epoch": 4948,
        "meta_bstar": 0,
        "meta_mean_motion_dot": -1.11e-06,
        "meta_mean_motion_ddot": 0,
        "tle_line1": "1 29494U 06043A   25343.55129483 -.00000111  00000+0  00000+0 0  9997",
        "tle_line2": "2 29494   1.9321  83.2391 0003157 178.3097 274.2425  1.00270727 49480"
      },
      "geometry": {
        "type": "Point",
        "coordinates": [
          94.04336607316769,
          0.3816444254702044
        ]
      }
    }
  ]
}